NORAD_CAT_ID,OBJECT_NAME,OBJECT_TYPE,EPOCH,MEAN_MOTION,ECCENTRICITY,INCLINATION,RA_OF_ASC_NODE,ARG_OF_PERICENTER,MEAN_ANOMALY,BSTAR,MEAN_MOTION_DOT,MEAN_MOTION_DDOT,TLE_LINE0,TLE_LINE1,TLE_LINE2,SEMIMAJOR_AXIS,PERIOD,APOGEE,PERIGEE,DECAYED
53013.0,STARLINK-4177,PAYLOAD,2022-08-15 22:00:00,15.73216791,0.0001661,53.2184,184.7419,28.7515,66.8142,-0.00020676,-0.00029558,0.0,0 STARLINK-4177,1 53013U 22076AD  22227.91667824 -.00029558  00000-0 -20676-3 0  9992,2 53013  53.2184 184.7419 0001661  28.7515  66.8142 15.73216791  1306,6727.847,91.532,350.83,348.595,0.0
53013.0,STARLINK-4177,PAYLOAD,2022-08-16 06:00:02,15.73158931,0.0001862,53.2184,183.0944,19.9043,164.6768,0.00035965,0.00050068,0.0,0 STARLINK-4177,1 53013U 22076AD  22228.25002315  .00050068  00000-0  35965-3 0  9993,2 53013  53.2184 183.0944 0001862  19.9043 164.6768 15.73158931  6747,6728.012,91.536,351.13,348.625,0.0
53013.0,STARLINK-4177,PAYLOAD,2022-08-16 14:00:01,15.73208383,0.0001706999999999,53.2183,181.4438,21.0729,252.3424,0.00014438,0.00019697,0.0,0 STARLINK-4177,1 53013U 22076AD  22228.58334491  .00019697  00000-0  14438-3 0  9997,2 53013  53.2183 181.4438 0001707  21.0729 252.3424 15.73208383  1307,6727.871,91.533,350.885,348.588,0.0
53013.0,STARLINK-4177,PAYLOAD,2022-08-16 22:00:00,15.73253992,0.0001681,53.2182,179.7941,25.5264,336.8143,-0.00012458,-0.00018108,0.0,0 STARLINK-4177,1 53013U 22076AD  22228.91667824 -.00018108  00000-0 -12458-3 0  9991,2 53013  53.2182 179.7941 0001681  25.5264 336.8143 15.73253992  1301,6727.741,91.53,350.737,348.475,0.0
53013.0,STARLINK-4177,PAYLOAD,2022-08-17 06:00:02,15.73215647,0.0001924,53.2175,178.1431,24.9671,66.4352,-0.00024825,-0.00035341,0.0,0 STARLINK-4177,1 53013U 22076AD  22229.25002315 -.00035341  00000-0 -24825-3 0  9996,2 53013  53.2175 178.1431 0001924  24.9671  66.4352 15.73215647  6909,6727.851,91.532,351.01,348.421,0.0
53013.0,STARLINK-4177,PAYLOAD,2022-08-17 14:00:01,15.73190602,0.0001809,53.2172,176.4855,22.9402,157.3388,-0.00070002,-0.00097698,0.0,0 STARLINK-4177,1 53013U 22076AD  22229.58334491 -.00097698  00000-0 -70002-3 0  9996,2 53013  53.2172 176.4855 0001809  22.9402 157.3388 15.73190602  1300,6727.922,91.534,351.004,348.57,0.0
53013.0,STARLINK-4177,PAYLOAD,2022-08-17 16:00:00,15.73143786,0.0001601,53.2174,176.0828,24.5326,267.9661,0.00055587,0.00077931,0.0,0 STARLINK-4177,1 53013U 22076AD  22229.66667824  .00077931  00000-0  55587-3 0  9991,2 53013  53.2174 176.0828 0001601  24.5326 267.9661 15.73143786  6972,6728.055,91.536,350.99800000000016,348.843,0.0
53013.0,STARLINK-4177,PAYLOAD,2022-08-18 14:00:01,15.73232446,0.0001728,53.2176,171.547,32.2132,54.9073,0.00022727,0.0003143999999999,0.0,0 STARLINK-4177,1 53013U 22076AD  22230.58334491  .00031440  00000-0  22727-3 0  9990,2 53013  53.2176 171.5470 0001728  32.2132  54.9073 15.73232446  1303,6727.803000000001,91.531,350.83,348.505,0.0
53013.0,STARLINK-4177,PAYLOAD,2022-08-18 22:00:00,15.73306492,0.0001796,53.2181,169.8978,40.2583,135.83100000000002,-0.00060166,-0.00084604,0.0,0 STARLINK-4177,1 53013U 22076AD  22230.91667824 -.00084604  00000-0 -60166-3 0  9997,2 53013  53.2181 169.8978 0001796  40.2583 135.8310 15.73306492  7162,6727.592,91.527,350.665,348.24800000000016,0.0
53013.0,STARLINK-4177,PAYLOAD,2022-08-19 06:00:00,15.73424918,0.0001766,53.2174,168.2418,29.4976,235.5854,-0.0045573,-0.00602289,0.0,0 STARLINK-4177,1 53013U 22076AD  22231.25001157 -.00602289  00000-0 -45573-2 0  9995,2 53013  53.2174 168.2418 0001766  29.4976 235.5854 15.73424918  7220,6727.254,91.52,350.307,347.931,0.0
53013.0,STARLINK-4177,PAYLOAD,2022-08-19 14:00:01,15.7312641,0.0001581,53.2168,166.5986,31.296,322.6928,0.00044026,0.00061426,0.0,0 STARLINK-4177,1 53013U 22076AD  22231.58334491  .00061426  00000-0  44026-3 0  9994,2 53013  53.2168 166.5986 0001581  31.2960 322.6928 15.73126410  1302,6728.105,91.537,351.034,348.906,0.0
53013.0,STARLINK-4177,PAYLOAD,2022-08-19 16:00:00,15.73117326,0.0001506,53.2167,166.1859,30.56900000000001,75.6379,0.00074053,0.00104236,0.0,0 STARLINK-4177,1 53013U 22076AD  22231.66667824  .00104236  00000-0  74053-3 0  9992,2 53013  53.2167 166.1859 0001506  30.5690  75.6379 15.73117326  7289,6728.130999999999,91.538,351.009,348.983,0.0
53013.0,STARLINK-4177,PAYLOAD,2022-08-19 20:00:01,15.731546,0.0001563,53.217,165.3612,34.3656,296.2516,0.00045864,0.00064115,0.0,0 STARLINK-4177,1 53013U 22076AD  22231.83334491  .00064115  00000-0  45864-3 0  9991,2 53013  53.2170 165.3612 0001563  34.3656 296.2516 15.73154600  1305,6728.025,91.536,350.941,348.838,0.0
53013.0,STARLINK-4177,PAYLOAD,2022-08-20 08:00:01,15.73143039,0.0001918,53.2169,162.8891,32.1311,251.8269,0.00030533,0.00042344,0.0,0 STARLINK-4177,1 53013U 22076AD  22232.33334491  .00042344  00000-0  30533-3 0  9994,2 53013  53.2169 162.8891 0001918  32.1311 251.8269 15.73143039  7393,6728.058000000001,91.536,351.213,348.63199999999995,0.0
53013.0,STARLINK-4177,PAYLOAD,2022-08-20 14:00:01,15.73152773,0.0001774999999999,53.2173,161.6506,37.4029,223.2146,0.00039544,0.00055131,0.0,0 STARLINK-4177,1 53013U 22076AD  22232.58334491  .00055131  00000-0  39544-3 0  9990,2 53013  53.2173 161.6506 0001775  37.4029 223.2146 15.73152773  1300,6728.03,91.536,351.089,348.701,0.0
53013.0,STARLINK-4177,PAYLOAD,2022-08-20 22:00:00,15.73220994,0.0001773,53.2171,160.0016,39.6304,309.8846,0.00010974,0.00014822,0.0,0 STARLINK-4177,1 53013U 22076AD  22232.91667824  .00014822  00000-0  10974-3 0  9994,2 53013  53.2171 160.0016 0001773  39.6304 309.8846 15.73220994  1304,6727.835,91.532,350.89300000000014,348.50699999999995,0.0
53013.0,STARLINK-4177,PAYLOAD,2022-08-21 14:00:01,15.73171976,0.0001567,53.2166,156.7021,32.8851,134.5223,0.00044379,0.0006205,0.0,0 STARLINK-4177,1 53013U 22076AD  22233.58334491  .00062050  00000-0  44379-3 0  9991,2 53013  53.2166 156.7021 0001567  32.8851 134.5223 15.73171976  1306,6727.975,91.535,350.894,348.786,0.0
53013.0,STARLINK-4177,PAYLOAD,2022-08-21 22:00:00,15.73233996,0.0001613,53.217,155.0533,36.6077,219.7175,0.00011373,0.00015393,0.0,0 STARLINK-4177,1 53013U 22076AD  22233.91667824  .00015393  00000-0  11373-3 0  9993,2 53013  53.2170 155.0533 0001613  36.6077 219.7175 15.73233996  1308,6727.7980000000025,91.531,350.74800000000016,348.57800000000015,0.0
53013.0,STARLINK-4177,PAYLOAD,2022-08-22 06:00:00,15.73251159,0.0001849,53.217,153.4053,30.9309,314.3540000000001,-0.00020323,-0.00029109,0.0,0 STARLINK-4177,1 53013U 22076AD  22234.25001157 -.00029109  00000-0 -20323-3 0  9999,2 53013  53.2170 153.4053 0001849  30.9309 314.3540 15.73251159  7690,6727.749,91.53,350.858,348.37,0.0
53013.0,STARLINK-4177,PAYLOAD,2022-08-22 12:00:00,15.73237343,0.0001679,53.2173,152.1665,36.0732,285.9486,-0.00073656,-0.00102905,0.0,0 STARLINK-4177,1 53013U 22076AD  22234.50001157 -.00102905  00000-0 -73656-3 0  9990,2 53013  53.2173 152.1665 0001679  36.0732 285.9486 15.73237343  1309,6727.7890000000025,91.531,350.783,348.524,0.0
53013.0,STARLINK-4177,PAYLOAD,2022-08-22 22:00:00,15.73190694,0.0001678,53.2172,150.1052,35.9381,127.2322,5.8318e-05,7.568e-05,0.0,0 STARLINK-4177,1 53013U 22076AD  22234.91667824  .00007568  00000-0  58318-4 0  9990,2 53013  53.2172 150.1052 0001678  35.9381 127.2322 15.73190694  7796,6727.922,91.534,350.916,348.658,0.0
53013.0,STARLINK-4177,PAYLOAD,2022-08-23 14:00:01,15.73208035,0.0001626,53.2168,146.8056,39.3971,301.5874,-7.0836e-05,-0.00010553,0.0,0 STARLINK-4177,1 53013U 22076AD  22235.58334491 -.00010553  00000-0 -70836-4 0  9994,2 53013  53.2168 146.8056 0001626  39.3971 301.5874 15.73208035  1302,6727.871999999999,91.533,350.831,348.64300000000014,0.0
53013.0,STARLINK-4177,PAYLOAD,2022-08-23 20:00:01,15.73205666,0.0001719,53.2172,145.5689,44.7017,272.9839,-0.00019752,-0.00028256,0.0,0 STARLINK-4177,1 53013U 22076AD  22235.83334491 -.00028256  00000-0 -19752-3 0  9990,2 53013  53.2172 145.5689 0001719  44.7017 272.9839 15.73205666  7944,6727.879,91.533,350.901,348.587,0.0
53013.0,STARLINK-4177,PAYLOAD,2022-08-23 22:00:01,15.73197084,0.0001803,53.2172,145.1572,43.9376,26.047,-0.00012351,-0.00017916,0.0,0 STARLINK-4177,1 53013U 22076AD  22235.91668981 -.00017916  00000-0 -12351-3 0  9992,2 53013  53.2172 145.1572 0001803  43.9376  26.0470 15.73197084  1301,6727.903,91.533,350.982,348.555,0.0
53013.0,STARLINK-4177,PAYLOAD,2022-08-24 06:00:00,15.7325191,0.0001751999999999,53.2172,143.5089,32.5013,126.4047,0.00057394,0.0008089,0.0,0 STARLINK-4177,1 53013U 22076AD  22236.25001157  .00080890  00000-0  57394-3 0  9991,2 53013  53.2172 143.5089 0001752  32.5013 126.4047 15.73251910  8009,6727.746999999999,91.53,350.791,348.43300000000005,0.0
53013.0,STARLINK-4177,PAYLOAD,2022-08-24 14:00:01,15.73180627,0.0001498,53.2177,141.851,30.8936,216.9939,0.00055439,0.00077844,0.0,0 STARLINK-4177,1 53013U 22076AD  22236.58334491  .00077844  00000-0  55439-3 0  9990,2 53013  53.2177 141.8510 0001498  30.8936 216.9939 15.73180627  1303,6727.95,91.534,350.8230000000001,348.80800000000005,0.0
53013.0,STARLINK-4177,PAYLOAD,2022-08-24 16:00:00,15.73192384,0.0001481,53.2175,141.4447,31.4323,328.6813,0.00048801,0.00068406,0.0,0 STARLINK-4177,1 53013U 22076AD  22236.66667824  .00068406  00000-0  48801-3 0  9997,2 53013  53.2175 141.4447 0001481  31.4323 328.6813 15.73192384  8071,6727.917,91.534,350.778,348.785,0.0
53013.0,STARLINK-4177,PAYLOAD,2022-08-24 22:00:00,15.73251065,0.0001648,53.2175,140.209,31.3711,305.4443,-0.00019558,-0.00028039,0.0,0 STARLINK-4177,1 53013U 22076AD  22236.91667824 -.00028039  00000-0 -19558-3 0  9992,2 53013  53.2175 140.2090 0001648  31.3711 305.4443 15.73251065  1300,6727.75,91.53,350.723,348.506,0.0
53013.0,STARLINK-4177,PAYLOAD,2022-08-25 06:00:02,15.73223553,0.000184,53.2168,138.5603,31.9038,33.9587,-0.00017859,-0.00025635,0.0,0 STARLINK-4177,1 53013U 22076AD  22237.25002315 -.00025635  00000-0 -17859-3 0  9999,2 53013  53.2168 138.5603 0001840  31.9038  33.9587 15.73223553  8168,6727.828,91.532,350.931,348.455,0.0
